[{"OBJECT_NAME":"ANDESITE","OBJECT_ID":"2020-037D","EPOCH":"2026-03-09T11:12:46.886112","MEAN_MOTION":15.05115692,"ECCENTRICITY":0.00099538,"INCLINATION":97.789,"RA_OF_ASC_NODE":260.5174,"ARG_OF_PERICENTER":141.6473,"MEAN_ANOMALY":218.5462,"EPHEMERIS_TYPE":0,"CLASSIFICATION_TYPE":"U","NORAD_CAT_ID":45726,"ELEMENT_SET_NO":999,"REV_AT_EPOCH":31066,"BSTAR":0.00031876291,"MEAN_MOTION_DOT":4.478e-5,"MEAN_MOTION_DDOT":0},{"OBJECT_NAME":"STARLINK-35245","OBJECT_ID":"2025-207H","EPOCH":"2026-03-09T17:44:36.315744","MEAN_MOTION":15.056491,"ECCENTRICITY":8.519e-5,"INCLINATION":97.6029,"RA_OF_ASC_NODE":138.7863,"ARG_OF_PERICENTER":126.3755,"MEAN_ANOMALY":233.7551,"EPHEMERIS_TYPE":0,"CLASSIFICATION_TYPE":"U","NORAD_CAT_ID":65599,"ELEMENT_SET_NO":999,"REV_AT_EPOCH":2827,"BSTAR":0.00046077597,"MEAN_MOTION_DOT":6.594e-5,"MEAN_MOTION_DDOT":0}]
