ANDESITE                
1 45726U 20037D   26068.46720933  .00004478  00000+0  31876-3 0  9992
2 45726  97.7890 260.5174 0009953 141.6473 218.5462 15.05115692310662
STARLINK-35245          
1 65599U 25207H   26068.73930920  .00006594  00000+0  46078-3 0  9996
2 65599  97.6029 138.7863 0000852 126.3755 233.7551 15.05649100 28275
